[{"OBJECT_NAME":"ICEYE-X31","OBJECT_ID":"2023-174AJ","EPOCH":"2026-03-09T23:06:20.433600","MEAN_MOTION":15.30950809,"ECCENTRICITY":0.00015021,"INCLINATION":97.3851,"RA_OF_ASC_NODE":144.9524,"ARG_OF_PERICENTER":332.6589,"MEAN_ANOMALY":27.4572,"EPHEMERIS_TYPE":0,"CLASSIFICATION_TYPE":"U","NORAD_CAT_ID":58288,"ELEMENT_SET_NO":999,"REV_AT_EPOCH":12955,"BSTAR":0.00066288467,"MEAN_MOTION_DOT":0.00019777,"MEAN_MOTION_DDOT":0},{"OBJECT_NAME":"STARLINK-32020","OBJECT_ID":"2024-124U","EPOCH":"2026-03-09T21:57:18.978336","MEAN_MOTION":15.30197755,"ECCENTRICITY":0.00010516,"INCLINATION":53.1592,"RA_OF_ASC_NODE":321.1997,"ARG_OF_PERICENTER":64.5119,"MEAN_ANOMALY":295.599,"EPHEMERIS_TYPE":0,"CLASSIFICATION_TYPE":"U","NORAD_CAT_ID":60201,"ELEMENT_SET_NO":999,"REV_AT_EPOCH":9433,"BSTAR":3.5522854e-5,"MEAN_MOTION_DOT":6.93e-6,"MEAN_MOTION_DDOT":0}]
